{
    "links": {
        "self": "http://www.neowsapp.com/rest/v1/neo/3787621?api_key=iIulBulltgU6a56xZRHN4H3l9WmuAYTsLGpBGhQ2"
    },
    "id": "3787621",
    "neo_reference_id": "3787621",
    "name": "(2017 UQ2)",
    "designation": "2017 UQ2",
    "nasa_jpl_url": "http://ssd.jpl.nasa.gov/sbdb.cgi?sstr=3787621",
    "absolute_magnitude_h": 25.7,
    "estimated_diameter": {
        "kilometers": {
            "estimated_diameter_min": 0.0192555078,
            "estimated_diameter_max": 0.0430566244
        },
        "meters": {
            "estimated_diameter_min": 19.2555078188,
            "estimated_diameter_max": 43.0566244241
        },
        "miles": {
            "estimated_diameter_min": 0.0119648141,
            "estimated_diameter_max": 0.0267541378
        },
        "feet": {
            "estimated_diameter_min": 63.1742402722,
            "estimated_diameter_max": 141.2618956756
        }
    },
    "is_potentially_hazardous_asteroid": false,
    "close_approach_data": [
        {
            "close_approach_date": "1922-11-19",
            "close_approach_date_full": "1922-Nov-19 17:22",
            "epoch_date_close_approach": -1486881480000,
            "relative_velocity": {
                "kilometers_per_second": "16.5803618332",
                "kilometers_per_hour": "59689.3025995326",
                "miles_per_hour": "37088.6113846929"
            },
            "miss_distance": {
                "astronomical": "0.070380566",
                "lunar": "27.378040174",
                "kilometers": "10528782.76299442",
                "miles": "6542282.239266196"
            },
            "orbiting_body": "Mars"
        },
        {
            "close_approach_date": "1923-03-30",
            "close_approach_date_full": "1923-Mar-30 18:49",
            "epoch_date_close_approach": -1475557860000,
            "relative_velocity": {
                "kilometers_per_second": "26.1004944891",
                "kilometers_per_hour": "93961.7801609224",
                "miles_per_hour": "58384.1961227687"
            },
            "miss_distance": {
                "astronomical": "0.3590145317",
                "lunar": "139.6566528313",
                "kilometers": "53707809.241367479",
                "miles": "33372485.1598860502"
            },
            "orbiting_body": "Earth"
        },
        {
            "close_approach_date": "2017-10-22",
            "close_approach_date_full": "2017-Oct-22 16:05",
            "epoch_date_close_approach": 1508688300000,
            "relative_velocity": {
                "kilometers_per_second": "16.1646934852",
                "kilometers_per_hour": "58192.896546693",
                "miles_per_hour": "36158.8028570271"
            },
            "miss_distance": {
                "astronomical": "0.0152943479",
                "lunar": "5.9495013331",
                "kilometers": "2288001.868878973",
                "miles": "1421698.4362889074"
            },
            "orbiting_body": "Earth"
        },
        {
            "close_approach_date": "2125-10-07",
            "close_approach_date_full": "2125-Oct-07 06:49",
            "epoch_date_close_approach": 4915493340000,
            "relative_velocity": {
                "kilometers_per_second": "24.6982561889",
                "kilometers_per_hour": "88913.7222801635",
                "miles_per_hour": "55247.5292690271"
            },
            "miss_distance": {
                "astronomical": "0.302585767",
                "lunar": "117.705863363",
                "kilometers": "45266186.23551629",
                "miles": "28127103.855613202"
            },
            "orbiting_body": "Earth"
        },
        {
            "close_approach_date": "2134-01-14",
            "close_approach_date_full": "2134-Jan-14 01:21",
            "epoch_date_close_approach": 5176488060000,
            "relative_velocity": {
                "kilometers_per_second": "14.59685675",
                "kilometers_per_hour": "52548.6843000788",
                "miles_per_hour": "32651.708864124"
            },
            "miss_distance": {
                "astronomical": "0.1353303015",
                "lunar": "52.6434872835",
                "kilometers": "20245124.850857805",
                "miles": "12579737.252155509"
            },
            "orbiting_body": "Venus"
        }
    ],
    "orbital_data": {
        "orbit_id": "3",
        "orbit_determination_date": "2018-01-12 06:22:31",
        "first_observation_date": "2017-10-19",
        "last_observation_date": "2017-10-23",
        "data_arc_in_days": 4,
        "observations_used": 41,
        "orbit_uncertainty": "8",
        "minimum_orbit_intersection": ".00938608",
        "jupiter_tisserand_invariant": "3.635",
        "epoch_osculation": "2458047.5",
        "eccentricity": ".6140163603440811",
        "semi_major_axis": "1.943931121622425",
        "inclination": "6.762748950511668",
        "ascending_node_longitude": "25.72988390053053",
        "orbital_period": "989.9647617073715",
        "perihelion_distance": ".7503256095642361",
        "perihelion_argument": "73.98685142852918",
        "aphelion_distance": "3.137536633680613",
        "perihelion_time": "2458093.638414123838",
        "mean_anomaly": "343.2217976567822",
        "mean_motion": ".3636493074552629",
        "equinox": "J2000",
        "orbit_class": {
            "orbit_class_type": "APO",
            "orbit_class_description": "Near-Earth asteroid orbits which cross the Earth’s orbit similar to that of 1862 Apollo",
            "orbit_class_range": "a (semi-major axis) > 1.0 AU; q (perihelion) < 1.017 AU"
        }
    },
    "is_sentry_object": false
}